$$SOE
2459580.500000000, A.D. 2022-Jan-01 00:00:00.0000, -3.985790307323928E+08, 2.248339424329321E+08, -9.455934409472935E+07,
2459587.500000000, A.D. 2022-Jan-08 00:00:00.0000, -4.036455358324243E+08, 2.160218412671361E+08, -9.629919366291253E+07,
2459594.500000000, A.D. 2022-Jan-15 00:00:00.0000, -4.085207324509798E+08, 2.071073284300341E+08, -9.799338687538326E+07,
2459601.500000000, A.D. 2022-Jan-22 00:00:00.0000, -4.132029888127787E+08, 1.980949755293392E+08, -9.964128482510176E+07,
2459608.500000000, A.D. 2022-Jan-29 00:00:00.0000, -4.176907819317276E+08, 1.889893739209065E+08, -1.012422764952816E+08,
2459615.500000000, A.D. 2022-Feb-05 00:00:00.0000, -4.219826992357805E+08, 1.797951310636530E+08, -1.027957785974517E+08,
2459622.500000000, A.D. 2022-Feb-12 00:00:00.0000, -4.260774379400619E+08, 1.705168658692725E+08, -1.043012356719427E+08,
2459629.500000000, A.D. 2022-Feb-19 00:00:00.0000, -4.299738034941816E+08, 1.611592054156351E+08, -1.057581201348840E+08,
2459636.500000000, A.D. 2022-Feb-26 00:00:00.0000, -4.336707084190390E+08, 1.517267823007102E+08, -1.071659322111201E+08,
2459643.500000000, A.D. 2022-Mar-05 00:00:00.0000, -4.371671713784788E+08, 1.422242320209433E+08, -1.085241998193974E+08,
2459650.500000000, A.D. 2022-Mar-12 00:00:00.0000, -4.404623162684920E+08, 1.326561903094449E+08, -1.098324784370411E+08,
2459657.500000000, A.D. 2022-Mar-19 00:00:00.0000, -4.435553712574024E+08, 1.230272904632971E+08, -1.110903509500286E+08,
2459664.500000000, A.D. 2022-Mar-26 00:00:00.0000, -4.464456677589238E+08, 1.133421606554895E+08, -1.122974274926769E+08,
2459671.500000000, A.D. 2022-Apr-02 00:00:00.0000, -4.491326392742141E+08, 1.036054211770568E+08, -1.134533452892354E+08,
2459678.500000000, A.D. 2022-Apr-09 00:00:00.0000, -4.516158198344269E+08, 9.382168161545876E+07, -1.145577685232204E+08,
2459685.500000000, A.D. 2022-Apr-16 00:00:00.0000, -4.538948416898137E+08, 8.399553862412165E+07, -1.156103882148241E+08,
2459692.500000000, A.D. 2022-Apr-23 00:00:00.0000, -4.559694335174009E+08, 7.413157536766489E+07, -1.166109219023552E+08,
2459699.500000000, A.D. 2022-Apr-30 00:00:00.0000, -4.578394210214223E+08, 6.423436039766094E+07, -1.175591131410656E+08,
2459706.500000000, A.D. 2022-May-07 00:00:00.0000, -4.595047268677054E+08, 5.430844398645259E+07, -1.184547312629741E+08,
2459713.500000000, A.D. 2022-May-14 00:00:00.0000, -4.609653685643945E+08, 4.435835495798907E+07, -1.192975712769965E+08,
2459720.500000000, A.D. 2022-May-21 00:00:00.0000, -4.622214563218299E+08, 3.438859877335348E+07, -1.200874536610919E+08,
2459727.500000000, A.D. 2022-May-28 00:00:00.0000, -4.632731913737043E+08, 2.440365591104084E+07, -1.208242240818238E+08,
2459734.500000000, A.D. 2022-Jun-04 00:00:00.0000, -4.641208644858394E+08, 1.440798022881406E+07, -1.215077530934341E+08,
2459741.500000000, A.D. 2022-Jun-11 00:00:00.0000, -4.647648545107360E+08, 4.405997309118174E+06, -1.221379358302829E+08,
2459748.500000000, A.D. 2022-Jun-18 00:00:00.0000, -4.652056269516804E+08, -5.597897199109837E+06, -1.227146916956794E+08,
2459755.500000000, A.D. 2022-Jun-25 00:00:00.0000, -4.654437325093789E+08, -1.559933927603963E+07, -1.232379640530460E+08,
2459762.500000000, A.D. 2022-Jul-02 00:00:00.0000, -4.654798054794416E+08, -2.559399833039949E+07, -1.237077199376057E+08,
2459769.500000000, A.D. 2022-Jul-09 00:00:00.0000, -4.653145616126579E+08, -3.557757892656581E+07, -1.241239498103748E+08,
2459776.500000000, A.D. 2022-Jul-16 00:00:00.0000, -4.649487954951504E+08, -4.554582135744697E+07, -1.244866672612149E+08,
2459783.500000000, A.D. 2022-Jul-23 00:00:00.0000, -4.643833796487485E+08, -5.549450098695876E+07, -1.247959084533194E+08,
2459790.500000000, A.D. 2022-Jul-30 00:00:00.0000, -4.636192652704248E+08, -6.541942971769907E+07, -1.250517315918740E+08,
2459797.500000000, A.D. 2022-Aug-06 00:00:00.0000, -4.626574810149804E+08, -7.531645893633676E+07, -1.252542166948272E+08,
2459804.500000000, A.D. 2022-Aug-13 00:00:00.0000, -4.614991306453249E+08, -8.518148118275118E+07, -1.254034653649307E+08,
2459811.500000000, A.D. 2022-Aug-20 00:00:00.0000, -4.601453911205022E+08, -9.501043104804476E+07, -1.254996004599965E+08,
2459818.500000000, A.D. 2022-Aug-27 00:00:00.0000, -4.585975110551351E+08, -1.047992860301612E+08, -1.255427657274871E+08,
2459825.500000000, A.D. 2022-Sep-03 00:00:00.0000, -4.568568093046162E+08, -1.145440674593553E+08, -1.255331254359657E+08,
2459832.500000000, A.D. 2022-Sep-10 00:00:00.0000, -4.549246735879364E+08, -1.242408414709756E+08, -1.254708640103323E+08,
2459839.500000000, A.D. 2022-Sep-17 00:00:00.0000, -4.528025591204319E+08, -1.338857200286760E+08, -1.253561856742141E+08,
2459846.500000000, A.D. 2022-Sep-24 00:00:00.0000, -4.504919871975951E+08, -1.434748620503303E+08, -1.251893141097830E+08,
2459853.500000000, A.D. 2022-Oct-01 00:00:00.0000, -4.479945434914706E+08, -1.530044746602046E+08, -1.249704921594251E+08,
2459860.500000000, A.D. 2022-Oct-08 00:00:00.0000, -4.453118756535335E+08, -1.624708140462594E+08, -1.246999815643903E+08,
2459867.500000000, A.D. 2022-Oct-15 00:00:00.0000, -4.424456911563764E+08, -1.718701847241953E+08, -1.243780625570436E+08,
2459874.500000000, A.D. 2022-Oct-22 00:00:00.0000, -4.393977575558376E+08, -1.811989388934805E+08, -1.240050332442361E+08,
2459881.500000000, A.D. 2022-Oct-29 00:00:00.0000, -4.361699026764587E+08, -1.904534784807992E+08, -1.235812092233225E+08,
2459888.500000000, A.D. 2022-Nov-05 00:00:00.0000, -4.327640126217216E+08, -1.996302571313678E+08, -1.231069233997866E+08,
2459895.500000000, A.D. 2022-Nov-12 00:00:00.0000, -4.291820295738361E+08, -2.087257808825289E+08, -1.225825257228121E+08,
2459902.500000000, A.D. 2022-Nov-19 00:00:00.0000, -4.254259501026459E+08, -2.177366084761350E+08, -1.220083828513503E+08,
2459909.500000000, A.D. 2022-Nov-26 00:00:00.0000, -4.214978237226854E+08, -2.266593517095319E+08, -1.213848778083363E+08,
2459916.500000000, A.D. 2022-Dec-03 00:00:00.0000, -4.173997515341132E+08, -2.354906758384740E+08, -1.207124096403283E+08,
2459923.500000000, A.D. 2022-Dec-10 00:00:00.0000, -4.131338849034424E+08, -2.442273000144145E+08, -1.199913930858401E+08,
2459930.500000000, A.D. 2022-Dec-17 00:00:00.0000, -4.087024241601604E+08, -2.528659977820883E+08, -1.192222582568362E+08,
2459937.500000000, A.D. 2022-Dec-24 00:00:00.0000, -4.041076172002091E+08, -2.614035977042353E+08, -1.184054503487394E+08,
2459944.500000000, A.D. 2022-Dec-31 00:00:00.0000, -3.993517576388242E+08, -2.698369840070795E+08, -1.175414294028279E+08,
2459951.500000000, A.D. 2023-Jan-07 00:00:00.0000, -3.944371823899425E+08, -2.781630962852670E+08, -1.166306700534196E+08,
2459958.500000000, A.D. 2023-Jan-14 00:00:00.0000, -3.893662706387082E+08, -2.863789277705986E+08, -1.156736610385401E+08,
2459965.500000000, A.D. 2023-Jan-21 00:00:00.0000, -3.841414448514779E+08, -2.944815253389769E+08, -1.146709046742408E+08,
2459972.500000000, A.D. 2023-Jan-28 00:00:00.0000, -3.787651701560402E+08, -3.024679914531423E+08, -1.136229166454635E+08,
2459979.500000000, A.D. 2023-Feb-04 00:00:00.0000, -3.732399523013855E+08, -3.103354850145747E+08, -1.125302258470176E+08,
2459986.500000000, A.D. 2023-Feb-11 00:00:00.0000, -3.675683359920233E+08, -3.180812213186545E+08, -1.113933741254334E+08,
2459993.500000000, A.D. 2023-Feb-18 00:00:00.0000, -3.617529036593674E+08, -3.257024719370857E+08, -1.102129159827921E+08,
2460000.500000000, A.D. 2023-Feb-25 00:00:00.0000, -3.557962744068001E+08, -3.331965646906419E+08, -1.089894182797572E+08,
2460007.500000000, A.D. 2023-Mar-04 00:00:00.0000, -3.497011030260127E+08, -3.405608836947978E+08, -1.077234599457265E+08,
2460014.500000000, A.D. 2023-Mar-11 00:00:00.0000, -3.434700790559716E+08, -3.477928694789000E+08, -1.064156316987123E+08,
2460021.500000000, A.D. 2023-Mar-18 00:00:00.0000, -3.371059258373511E+08, -3.548900192292899E+08, -1.050665357832085E+08,
2460028.500000000, A.D. 2023-Mar-25 00:00:00.0000, -3.306113993589008E+08, -3.618498872044339E+08, -1.036767857483547E+08,
2460035.500000000, A.D. 2023-Apr-01 00:00:00.0000, -3.239892864709521E+08, -3.686700849294330E+08, -1.022470062729441E+08,
2460042.500000000, A.D. 2023-Apr-08 00:00:00.0000, -3.172424030810021E+08, -3.753482799454719E+08, -1.007778328803900E+08,
2460049.500000000, A.D. 2023-Apr-15 00:00:00.0000, -3.103735946675198E+08, -3.818821942208854E+08, -9.926991141932571E+07,
2460056.500000000, A.D. 2023-Apr-22 00:00:00.0000, -3.033857373021331E+08, -3.882696052770905E+08, -9.772389772520573E+07,
2460063.500000000, A.D. 2023-Apr-29 00:00:00.0000, -2.962817364454514E+08, -3.945083477780905E+08, -9.614045752994375E+07,
2460070.500000000, A.D. 2023-May-06 00:00:00.0000, -2.890645252770309E+08, -4.005963138030125E+08, -9.452026631253776E+07,
2460077.500000000, A.D. 2023-May-13 00:00:00.0000, -2.817370635358059E+08, -4.065314526952585E+08, -9.286400907382825E+07,
2460084.500000000, A.D. 2023-May-20 00:00:00.0000, -2.743023366359012E+08, -4.123117709795690E+08, -9.117238009681150E+07,
2460091.500000000, A.D. 2023-May-27 00:00:00.0000, -2.667633548633205E+08, -4.179353323771662E+08, -8.944608271272865E+07,
2460098.500000000, A.D. 2023-Jun-03 00:00:00.0000, -2.591231525952235E+08, -4.234002578941473E+08, -8.768582907641050E+07,
2460105.500000000, A.D. 2023-Jun-10 00:00:00.0000, -2.513847875177721E+08, -4.287047259980946E+08, -8.589233995457953E+07,
2460112.500000000, A.D. 2023-Jun-17 00:00:00.0000, -2.435513397535281E+08, -4.338469729438558E+08, -8.406634454046050E+07,
2460119.500000000, A.D. 2023-Jun-24 00:00:00.0000, -2.356259105783721E+08, -4.388252931932068E+08, -8.220858031955469E+07,
2460126.500000000, A.D. 2023-Jul-01 00:00:00.0000, -2.276116204743844E+08, -4.436380391001199E+08, -8.031979294193703E+07,
2460133.500000000, A.D. 2023-Jul-08 00:00:00.0000, -2.195116081915195E+08, -4.482836190390518E+08, -7.840073588002524E+07,
2460140.500000000, A.D. 2023-Jul-15 00:00:00.0000, -2.113290320929003E+08, -4.527604968060516E+08, -7.645216998583451E+07,
$$EOE